ERS-1                   
1 21574U 91050A   26057.50602218  .00000313  00000+0  11497-3 0  9999
2 21574  98.7889  75.4594 0031091 234.2714 125.5579 14.39439113814129
ARIANE 40 R/B           
1 21610U 91050F   26057.16749947  .00000263  00000+0  91367-4 0  9992
2 21610  98.2038 109.8351 0004363 106.1141 254.0530 14.42883826817336
INTERCOSMOS 25          
1 21819U 91086A   26057.67760346  .00001518  00000+0  29140-3 0  9997
2 21819  82.6070 316.6632 1487091 140.6557 231.2688 12.11963375495355
SL-8 R/B                
1 21876U 92008B   26057.58958998  .00000011  00000+0 -40480-5 0  9997
2 21876  82.9233 276.0374 0034978 163.6890 225.1875 13.75969910707897
SL-8 R/B                
1 21938U 92020B   26057.41977517  .00000069  00000+0  56090-4 0  9995
2 21938  82.9344 162.1265 0028157 331.4719 100.2403 13.75548007699586
USA 81                  
1 21949U 92023A   26057.62126902  .00000170  00000+0  55740-4 0  9991
2 21949  85.0106 137.8250 0002724  87.1141 273.0363 14.32363681 93205
COSMOS 2219             
1 22219U 92076A   26057.41510685  .00000367  00000+0  21719-3 0  9998
2 22219  71.0602  41.6362 0019509 222.0626 137.9000 14.14084969716785
SL-16 R/B               
1 22285U 92093B   26057.85630674  .00000055  00000+0  52492-4 0  9996
2 22285  71.0230  27.0063 0006069 305.3101  54.7454 14.15449594711628
